[{"OBJECT_NAME":"STARLINK-3552","OBJECT_ID":"2022-017AX","EPOCH":"2026-03-09T22:46:59.222784","MEAN_MOTION":15.08832758,"ECCENTRICITY":0.00011223,"INCLINATION":53.2185,"RA_OF_ASC_NODE":327.9839,"ARG_OF_PERICENTER":78.4437,"MEAN_ANOMALY":281.6681,"EPHEMERIS_TYPE":0,"CLASSIFICATION_TYPE":"U","NORAD_CAT_ID":51813,"ELEMENT_SET_NO":999,"REV_AT_EPOCH":22412,"BSTAR":4.102763e-6,"MEAN_MOTION_DOT":-2.22e-6,"MEAN_MOTION_DDOT":0},{"OBJECT_NAME":"RAPIDEYE 2","OBJECT_ID":"2008-040A","EPOCH":"2026-03-09T16:28:01.823808","MEAN_MOTION":15.04945954,"ECCENTRICITY":0.00177122,"INCLINATION":97.4373,"RA_OF_ASC_NODE":102.2221,"ARG_OF_PERICENTER":194.2548,"MEAN_ANOMALY":165.8182,"EPHEMERIS_TYPE":0,"CLASSIFICATION_TYPE":"U","NORAD_CAT_ID":33312,"ELEMENT_SET_NO":999,"REV_AT_EPOCH":95100,"BSTAR":0.0001818221,"MEAN_MOTION_DOT":2.525e-5,"MEAN_MOTION_DDOT":0}]
